STARLINK-32374          
1 62145U 24224G   26068.26300344  .00035289  00000+0  12854-2 0  9994
2 62145  43.0000 160.6086 0002018 256.0897 103.9730 15.27589886 72418
FLOCK 4G-21             
1 62651U 25009AU  26068.19487675  .00013648  00000+0  49619-3 0  9998
2 62651  97.4032 151.1274 0000465 329.5782  30.5431 15.28381075 63677
